[{"OBJECT_NAME":"STARLINK-31413","OBJECT_ID":"2024-060F","EPOCH":"2026-03-09T13:06:50.522976","MEAN_MOTION":15.2757185,"ECCENTRICITY":0.0001123,"INCLINATION":43.0004,"RA_OF_ASC_NODE":260.435,"ARG_OF_PERICENTER":286.1881,"MEAN_ANOMALY":73.8847,"EPHEMERIS_TYPE":0,"CLASSIFICATION_TYPE":"U","NORAD_CAT_ID":59353,"ELEMENT_SET_NO":999,"REV_AT_EPOCH":11004,"BSTAR":-6.4073e-5,"MEAN_MOTION_DOT":-2.024e-5,"MEAN_MOTION_DDOT":0},{"OBJECT_NAME":"FLOCK 4G-2","OBJECT_ID":"2025-009BE","EPOCH":"2026-03-09T15:53:23.273952","MEAN_MOTION":15.2767526,"ECCENTRICITY":0.00031811,"INCLINATION":97.4044,"RA_OF_ASC_NODE":151.2221,"ARG_OF_PERICENTER":329.2677,"MEAN_ANOMALY":30.8376,"EPHEMERIS_TYPE":0,"CLASSIFICATION_TYPE":"U","NORAD_CAT_ID":62661,"ELEMENT_SET_NO":999,"REV_AT_EPOCH":12132,"BSTAR":0.00051068481,"MEAN_MOTION_DOT":0.00013752,"MEAN_MOTION_DDOT":0}]
